{
  "type": "FeatureCollection",
  "features": [
    {
      "type": "Feature",
      "properties": {
        "norad_id": 66432,
        "name": "STARLINK-35446",
        "group": "last-30-days",
        "lat": -33.302746862006906,
        "lon": 28.13096720701749,
        "alt_km": 446.2298203961991,
        "timestamp": "2025-12-08T08:58:59.555837+00:00",
        "meta_object_name": "STARLINK-35446",
        "meta_object_id": "2025-259L",
        "meta_epoch": "2025-12-07T22:00:03.000096",
        "meta_mean_motion": 15.40656002,
        "meta_eccentricity": 0.00011679,
        "meta_inclination": 43.0006,
        "meta_ra_of_asc_node": 75.5958,
        "meta_arg_of_pericenter": 285.9417,
        "meta_mean_anomaly": 359.4093,
        "meta_ephemeris_type": 0,
        "meta_classification_type": "U",
        "meta_norad_cat_id": 66432,
        "meta_element_set_no": 999,
        "meta_rev_at_epoch": 550,
        "meta_bstar": 0.00084750512,
        "meta_mean_motion_dot": 0.0003521,
        "meta_mean_motion_ddot": 0,
        "tle_line1": "1 66432U 25259L   25341.91670139  .00035210  00000+0  84751-3 0  9993",
        "tle_line2": "2 66432  43.0006  75.5958 0001167 285.9417 359.4093 15.40656002  5508"
      },
      "geometry": {
        "type": "Point",
        "coordinates": [
          28.13096720701749,
          -33.302746862006906
        ]
      }
    },
    {
      "type": "Feature",
      "properties": {
        "norad_id": 66433,
        "name": "STARLINK-35457",
        "group": "last-30-days",
        "lat": -26.6966863341717,
        "lon": 40.269784858643355,
        "alt_km": 447.5832318521825,
        "timestamp": "2025-12-08T08:58:59.555848+00:00",
        "meta_object_name": "STARLINK-35457",
        "meta_object_id": "2025-259M",
        "meta_epoch": "2025-12-07T22:00:03.000096",
        "meta_mean_motion": 15.42500194,
        "meta_eccentricity": 0.00010752,
        "meta_inclination": 43.0007,
        "meta_ra_of_asc_node": 75.5687,
        "meta_arg_of_pericenter": 251.001,
        "meta_mean_anomaly": 45.671,
        "meta_ephemeris_type": 0,
        "meta_classification_type": "U",
        "meta_norad_cat_id": 66433,
        "meta_element_set_no": 999,
        "meta_rev_at_epoch": 550,
        "meta_bstar": -0.058623289,
        "meta_mean_motion_dot": -0.02320878,
        "meta_mean_motion_ddot": 0,
        "tle_line1": "1 66433U 25259M   25341.91670139 -.02320878  00000+0 -58623-1 0  9992",
        "tle_line2": "2 66433  43.0007  75.5687 0001075 251.0010  45.6710 15.42500194  5502"
      },
      "geometry": {
        "type": "Point",
        "coordinates": [
          40.269784858643355,
          -26.6966863341717
        ]
      }
    },
    {
      "type": "Feature",
      "properties": {
        "norad_id": 66434,
        "name": "STARLINK-35389",
        "group": "last-30-days",
        "lat": -19.27023955593671,
        "lon": 50.86625949177858,
        "alt_km": 441.92582826274065,
        "timestamp": "2025-12-08T08:58:59.555858+00:00",
        "meta_object_name": "STARLINK-35389",
        "meta_object_id": "2025-259N",
        "meta_epoch": "2025-12-07T22:00:03.000096",
        "meta_mean_motion": 15.43565522,
        "meta_eccentricity": 8.884e-05,
        "meta_inclination": 43.0006,
        "meta_ra_of_asc_node": 75.5467,
        "meta_arg_of_pericenter": 282.6016,
        "meta_mean_anomaly": 24.0959,
        "meta_ephemeris_type": 0,
        "meta_classification_type": "U",
        "meta_norad_cat_id": 66434,
        "meta_element_set_no": 999,
        "meta_rev_at_epoch": 550,
        "meta_bstar": -0.041485903,
        "meta_mean_motion_dot": -0.01700151,
        "meta_mean_motion_ddot": 0,
        "tle_line1": "1 66434U 25259N   25341.91670139 -.01700151  00000+0 -41486-1 0  9997",
        "tle_line2": "2 66434  43.0006  75.5467 0000888 282.6016  24.0959 15.43565522  5508"
      },
      "geometry": {
        "type": "Point",
        "coordinates": [
          50.86625949177858,
          -19.27023955593671
        ]
      }
    },
    {
      "type": "Feature",
      "properties": {
        "norad_id": 66435,
        "name": "STARLINK-35502",
        "group": "last-30-days",
        "lat": -12.365842054799257,
        "lon": 59.26743908666714,
        "alt_km": 438.168416283821,
        "timestamp": "2025-12-08T08:58:59.555871+00:00",
        "meta_object_name": "STARLINK-35502",
        "meta_object_id": "2025-259P",
        "meta_epoch": "2025-12-07T22:00:03.000096",
        "meta_mean_motion": 15.45014362,
        "meta_eccentricity": 0.00011645,
        "meta_inclination": 43.001,
        "meta_ra_of_asc_node": 75.5252,
        "meta_arg_of_pericenter": 270.9687,
        "meta_mean_anomaly": 44.2813,
        "meta_ephemeris_type": 0,
        "meta_classification_type": "U",
        "meta_norad_cat_id": 66435,
        "meta_element_set_no": 999,
        "meta_rev_at_epoch": 550,
        "meta_bstar": -0.048115487,
        "meta_mean_motion_dot": -0.02064537,
        "meta_mean_motion_ddot": 0,
        "tle_line1": "1 66435U 25259P   25341.91670139 -.02064537  00000+0 -48115-1 0  9996",
        "tle_line2": "2 66435  43.0010  75.5252 0001164 270.9687  44.2813 15.45014362  5504"
      },
      "geometry": {
        "type": "Point",
        "coordinates": [
          59.26743908666714,
          -12.365842054799257
        ]
      }
    },
    {
      "type": "Feature",
      "properties": {
        "norad_id": 66436,
        "name": "STARLINK-35501",
        "group": "last-30-days",
        "lat": 7.125285314640522,
        "lon": 80.50821918609195,
        "alt_km": 412.20727199061184,
        "timestamp": "2025-12-08T08:58:59.555883+00:00",
        "meta_object_name": "STARLINK-35501",
        "meta_object_id": "2025-259Q",
        "meta_epoch": "2025-12-06T16:45:00.432288",
        "meta_mean_motion": 15.50605966,
        "meta_eccentricity": 0.00014143,
        "meta_inclination": 43.0008,
        "meta_ra_of_asc_node": 82.6107,
        "meta_arg_of_pericenter": 280.4896,
        "meta_mean_anomaly": 79.5804,
        "meta_ephemeris_type": 0,
        "meta_classification_type": "U",
        "meta_norad_cat_id": 66436,
        "meta_element_set_no": 999,
        "meta_rev_at_epoch": 523,
        "meta_bstar": 0.0023641253,
        "meta_mean_motion_dot": 0.00141011,
        "meta_mean_motion_ddot": 0,
        "tle_line1": "1 66436U 25259Q   25340.69792167  .00141011  00000+0  23641-2 0  9994",
        "tle_line2": "2 66436  43.0008  82.6107 0001414 280.4896  79.5804 15.50605966  5239"
      },
      "geometry": {
        "type": "Point",
        "coordinates": [
          80.50821918609195,
          7.125285314640522
        ]
      }
    },
    {
      "type": "Feature",
      "properties": {
        "norad_id": 66437,
        "name": "STARLINK-35474",
        "group": "last-30-days",
        "lat": 8.55666009742214,
        "lon": 82.08491087748688,
        "alt_km": 411.76204192197747,
        "timestamp": "2025-12-08T08:58:59.555893+00:00",
        "meta_object_name": "STARLINK-35474",
        "meta_object_id": "2025-259R",
        "meta_epoch": "2025-12-06T16:44:30.685632",
        "meta_mean_motion": 15.50622786,
        "meta_eccentricity": 0.00020021,
        "meta_inclination": 43.0007,
        "meta_ra_of_asc_node": 82.6072,
        "meta_arg_of_pericenter": 283.6406,
        "meta_mean_anomaly": 76.4231,
        "meta_ephemeris_type": 0,
        "meta_classification_type": "U",
        "meta_norad_cat_id": 66437,
        "meta_element_set_no": 999,
        "meta_rev_at_epoch": 523,
        "meta_bstar": 0.0025207389,
        "meta_mean_motion_dot": 0.00150655,
        "meta_mean_motion_ddot": 0,
        "tle_line1": "1 66437U 25259R   25340.69757738  .00150655  00000+0  25207-2 0  9994",
        "tle_line2": "2 66437  43.0007  82.6072 0002002 283.6406  76.4231 15.50622786  5235"
      },
      "geometry": {
        "type": "Point",
        "coordinates": [
          82.08491087748688,
          8.55666009742214
        ]
      }
    },
    {
      "type": "Feature",
      "properties": {
        "norad_id": 66438,
        "name": "STARLINK-34681",
        "group": "last-30-days",
        "lat": 8.856776889635452,
        "lon": 82.42001932372064,
        "alt_km": 412.5404164408428,
        "timestamp": "2025-12-08T08:58:59.555903+00:00",
        "meta_object_name": "STARLINK-34681",
        "meta_object_id": "2025-259S",
        "meta_epoch": "2025-12-07T14:22:38.050464",
        "meta_mean_motion": 15.50614976,
        "meta_eccentricity": 0.00012118,
        "meta_inclination": 42.9989,
        "meta_ra_of_asc_node": 77.3301,
        "meta_arg_of_pericenter": 308.3607,
        "meta_mean_anomaly": 51.7144,
        "meta_ephemeris_type": 0,
        "meta_classification_type": "U",
        "meta_norad_cat_id": 66438,
        "meta_element_set_no": 999,
        "meta_rev_at_epoch": 526,
        "meta_bstar": 0.0020037428,
        "meta_mean_motion_dot": 0.00119166,
        "meta_mean_motion_ddot": 0,
        "tle_line1": "1 66438U 25259S   25341.59905151  .00119166  00000+0  20037-2 0  9997",
        "tle_line2": "2 66438  42.9989  77.3301 0001211 308.3607  51.7144 15.50614976  5262"
      },
      "geometry": {
        "type": "Point",
        "coordinates": [
          82.42001932372064,
          8.856776889635452
        ]
      }
    }
  ]
}